[{"OBJECT_NAME":"ASTROCAST-0403","OBJECT_ID":"2023-001DG","EPOCH":"2026-03-09T19:45:35.762976","MEAN_MOTION":15.28004949,"ECCENTRICITY":0.00047706,"INCLINATION":97.5604,"RA_OF_ASC_NODE":161.3228,"ARG_OF_PERICENTER":338.0704,"MEAN_ANOMALY":22.033,"EPHEMERIS_TYPE":0,"CLASSIFICATION_TYPE":"U","NORAD_CAT_ID":55111,"ELEMENT_SET_NO":999,"REV_AT_EPOCH":12937,"BSTAR":0.0005131719,"MEAN_MOTION_DOT":0.00013959,"MEAN_MOTION_DDOT":0},{"OBJECT_NAME":"STARLINK-31797","OBJECT_ID":"2024-082D","EPOCH":"2026-03-09T13:32:05.203968","MEAN_MOTION":15.27570618,"ECCENTRICITY":0.0001214,"INCLINATION":43.0006,"RA_OF_ASC_NODE":140.4405,"ARG_OF_PERICENTER":261.4726,"MEAN_ANOMALY":98.5988,"EPHEMERIS_TYPE":0,"CLASSIFICATION_TYPE":"U","NORAD_CAT_ID":59634,"ELEMENT_SET_NO":999,"REV_AT_EPOCH":10483,"BSTAR":-6.9527e-6,"MEAN_MOTION_DOT":-4.53e-6,"MEAN_MOTION_DDOT":0}]
